{"type": "FeatureCollection", "features": [ {"type": "Feature", "properties": {"norad_id": 44622, "name": "GAOFEN-10R", "group": "resource", "lat": 25.794209459528854, "lon": -75.56772846296705, "alt_km": 614.9230865526979, "timestamp": "2025-12-06T20:37:55.716854+00:00", "meta": {"OBJECT_NAME": "GAOFEN-10R", "OBJECT_ID": "2019-066A", "EPOCH": "2025-12-06T14:02:12.216768", "MEAN_MOTION": 14.82759408, "ECCENTRICITY": 0.0008181, "INCLINATION": 98.0272, "RA_OF_ASC_NODE": 288.0672, "ARG_OF_PERICENTER": 58.837, "MEAN_ANOMALY": 301.3644, "EPHEMERIS_TYPE": 0, "CLASSIFICATION_TYPE": "U", "NORAD_CAT_ID": 44622, "ELEMENT_SET_NO": 999, "REV_AT_EPOCH": 33383, "BSTAR": 0.00041464288, "MEAN_MOTION_DOT": 3.298e-05, "MEAN_MOTION_DDOT": 0}, "tle": {"line1": "1 44622U 19066A   25340.58486362  .00003298  00000+0  41464-3 0  9999", "line2": "2 44622  98.0272 288.0672 0008181  58.8370 301.3644 14.82759408333839"}}, "geometry": {"type": "Point", "coordinates": [-75.56772846296705, 25.794209459528854]}}, {"type": "Feature", "properties": {"norad_id": 44804, "name": "CARTOSAT-3", "group": "resource", "lat": 41.41121471030979, "lon": -132.8470708658391, "alt_km": 496.62226388059753, "timestamp": "2025-12-06T20:37:55.716865+00:00", "meta": {"OBJECT_NAME": "CARTOSAT-3", "OBJECT_ID": "2019-081A", "EPOCH": "2025-12-06T15:17:07.573344", "MEAN_MOTION": 15.19293659, "ECCENTRICITY": 0.00139359, "INCLINATION": 97.4592, "RA_OF_ASC_NODE": 40.2973, "ARG_OF_PERICENTER": 106.185, "MEAN_ANOMALY": 254.0919, "EPHEMERIS_TYPE": 0, "CLASSIFICATION_TYPE": "U", "NORAD_CAT_ID": 44804, "ELEMENT_SET_NO": 999, "REV_AT_EPOCH": 33423, "BSTAR": 0.00037093999, "MEAN_MOTION_DOT": 7.781e-05, "MEAN_MOTION_DDOT": 0}, "tle": {"line1": "1 44804U 19081A   25340.63689321  .00007781  00000+0  37094-3 0  9999", "line2": "2 44804  97.4592  40.2973 0013935 106.1850 254.0919 15.19293659334230"}}, "geometry": {"type": "Point", "coordinates": [-132.8470708658391, 41.41121471030979]}}, {"type": "Feature", "properties": {"norad_id": 44819, "name": "GAOFEN-12 01", "group": "resource", "lat": -21.63038214816129, "lon": -9.583999892138639, "alt_km": 632.264583901896, "timestamp": "2025-12-06T20:37:55.716876+00:00", "meta": {"OBJECT_NAME": "GAOFEN-12 01", "OBJECT_ID": "2019-082A", "EPOCH": "2025-12-06T14:14:34.632960", "MEAN_MOTION": 14.80646526, "ECCENTRICITY": 0.00011845, "INCLINATION": 97.8125, "RA_OF_ASC_NODE": 347.0358, "ARG_OF_PERICENTER": 275.9784, "MEAN_ANOMALY": 84.1293, "EPHEMERIS_TYPE": 0, "CLASSIFICATION_TYPE": "U", "NORAD_CAT_ID": 44819, "ELEMENT_SET_NO": 999, "REV_AT_EPOCH": 32559, "BSTAR": 0.00013547298, "MEAN_MOTION_DOT": 9.9e-06, "MEAN_MOTION_DDOT": 0}, "tle": {"line1": "1 44819U 19082A   25340.59345640  .00000990  00000+0  13547-3 0  9996", "line2": "2 44819  97.8125 347.0358 0001184 275.9784  84.1293 14.80646526325599"}}, "geometry": {"type": "Point", "coordinates": [-9.583999892138639, -21.63038214816129]}}, {"type": "Feature", "properties": {"norad_id": 44873, "name": "CSG-1", "group": "resource", "lat": 56.43228631517097, "lon": 150.2234270902036, "alt_km": 616.2518355490747, "timestamp": "2025-12-06T20:37:55.716887+00:00", "meta": {"OBJECT_NAME": "CSG-1", "OBJECT_ID": "2019-092A", "EPOCH": "2025-12-06T13:53:37.302144", "MEAN_MOTION": 14.82151079, "ECCENTRICITY": 0.00014568, "INCLINATION": 97.8812, "RA_OF_ASC_NODE": 161.9958, "ARG_OF_PERICENTER": 86.3505, "MEAN_ANOMALY": 273.7874, "EPHEMERIS_TYPE": 0, "CLASSIFICATION_TYPE": "U", "NORAD_CAT_ID": 44873, "ELEMENT_SET_NO": 999, "REV_AT_EPOCH": 32294, "BSTAR": 0.0001602306, "MEAN_MOTION_DOT": 1.223e-05, "MEAN_MOTION_DDOT": 0}, "tle": {"line1": "1 44873U 19092A   25340.57890396  .00001223  00000+0  16023-3 0  9990", "line2": "2 44873  97.8812 161.9958 0001456  86.3505 273.7874 14.82151079322941"}}, "geometry": {"type": "Point", "coordinates": [150.2234270902036, 56.43228631517097]}}, {"type": "Feature", "properties": {"norad_id": 46277, "name": "NEMO-HD", "group": "resource", "lat": 67.69076766433798, "lon": 22.031894333595986, "alt_km": 437.61402385531164, "timestamp": "2025-12-06T20:37:55.716897+00:00", "meta": {"OBJECT_NAME": "NEMO-HD", "OBJECT_ID": "2020-061F", "EPOCH": "2025-12-06T15:39:23.475456", "MEAN_MOTION": 15.40143215, "ECCENTRICITY": 0.00022037, "INCLINATION": 97.2218, "RA_OF_ASC_NODE": 39.8288, "ARG_OF_PERICENTER": 63.5735, "MEAN_ANOMALY": 296.5737, "EPHEMERIS_TYPE": 0, "CLASSIFICATION_TYPE": "U", "NORAD_CAT_ID": 46277, "ELEMENT_SET_NO": 999, "REV_AT_EPOCH": 29230, "BSTAR": 0.00041896208, "MEAN_MOTION_DOT": 0.00016729, "MEAN_MOTION_DDOT": 0}, "tle": {"line1": "1 46277U 20061F   25340.65235504  .00016729  00000+0  41896-3 0  9994", "line2": "2 46277  97.2218  39.8288 0002203  63.5735 296.5737 15.40143215292302"}}, "geometry": {"type": "Point", "coordinates": [22.031894333595986, 67.69076766433798]}}, {"type": "Feature", "properties": {"norad_id": 46984, "name": "SENTINEL-6A", "group": "resource", "lat": -12.106228976280054, "lon": 169.04849371905732, "alt_km": 1339.8125630657896, "timestamp": "2025-12-06T20:37:55.716907+00:00", "meta": {"OBJECT_NAME": "SENTINEL-6A", "OBJECT_ID": "2020-086A", "EPOCH": "2025-12-06T15:04:47.053632", "MEAN_MOTION": 12.80930339, "ECCENTRICITY": 0.00077411, "INCLINATION": 66.0392, "RA_OF_ASC_NODE": 175.0019, "ARG_OF_PERICENTER": 269.1919, "MEAN_ANOMALY": 90.8209, "EPHEMERIS_TYPE": 0, "CLASSIFICATION_TYPE": "U", "NORAD_CAT_ID": 46984, "ELEMENT_SET_NO": 999, "REV_AT_EPOCH": 23566, "BSTAR": 8.3183971e-05, "MEAN_MOTION_DOT": -4.2e-07, "MEAN_MOTION_DDOT": 0}, "tle": {"line1": "1 46984U 20086A   25340.62832238 -.00000042  00000+0  83184-4 0  9999", "line2": "2 46984  66.0392 175.0019 0007741 269.1919  90.8209 12.80930339235666"}}, "geometry": {"type": "Point", "coordinates": [169.04849371905732, -12.106228976280054]}}, {"type": "Feature", "properties": {"norad_id": 48079, "name": "GAOFEN-12 02", "group": "resource", "lat": -10.951042812439162, "lon": -23.54913925204042, "alt_km": 632.8577550121618, "timestamp": "2025-12-06T20:37:55.716918+00:00", "meta": {"OBJECT_NAME": "GAOFEN-12 02", "OBJECT_ID": "2021-026A", "EPOCH": "2025-12-06T14:11:40.067808", "MEAN_MOTION": 14.80663894, "ECCENTRICITY": 0.00033863, "INCLINATION": 97.9848, "RA_OF_ASC_NODE": 334.6276, "ARG_OF_PERICENTER": 113.2364, "MEAN_ANOMALY": 246.9205, "EPHEMERIS_TYPE": 0, "CLASSIFICATION_TYPE": "U", "NORAD_CAT_ID": 48079, "ELEMENT_SET_NO": 999, "REV_AT_EPOCH": 25326, "BSTAR": 0.00014075318, "MEAN_MOTION_DOT": 1.029e-05, "MEAN_MOTION_DDOT": 0}, "tle": {"line1": "1 48079U 21026A   25340.59143597  .00001029  00000+0  14075-3 0  9997", "line2": "2 48079  97.9848 334.6276 0003386 113.2364 246.9205 14.80663894253261"}}, "geometry": {"type": "Point", "coordinates": [-23.54913925204042, -10.951042812439162]}}, {"type": "Feature", "properties": {"norad_id": 48268, "name": "PLEIADES NEO 3", "group": "resource", "lat": 34.43092154490228, "lon": 47.92638651852651, "alt_km": 621.3660174456345, "timestamp": "2025-12-06T20:37:55.716929+00:00", "meta": {"OBJECT_NAME": "PLEIADES NEO 3", "OBJECT_ID": "2021-034A", "EPOCH": "2025-12-06T15:36:47.653056", "MEAN_MOTION": 14.81675652, "ECCENTRICITY": 0.0001318, "INCLINATION": 97.895, "RA_OF_ASC_NODE": 53.1788, "ARG_OF_PERICENTER": 95.4164, "MEAN_ANOMALY": 264.72, "EPHEMERIS_TYPE": 0, "CLASSIFICATION_TYPE": "U", "NORAD_CAT_ID": 48268, "ELEMENT_SET_NO": 999, "REV_AT_EPOCH": 24914, "BSTAR": 2.854346e-05, "MEAN_MOTION_DOT": 1.73e-06, "MEAN_MOTION_DDOT": 0}, "tle": {"line1": "1 48268U 21034A   25340.65055154  .00000173  00000+0  28543-4 0  9999", "line2": "2 48268  97.8950  53.1788 0001318  95.4164 264.7200 14.81675652249148"}}, "geometry": {"type": "Point", "coordinates": [47.92638651852651, 34.43092154490228]}}, {"type": "Feature", "properties": {"norad_id": 49070, "name": "PLEIADES NEO 4", "group": "resource", "lat": -34.70678861224017, "lon": -132.13467314993798, "alt_km": 630.7536072324901, "timestamp": "2025-12-06T20:37:55.716939+00:00", "meta": {"OBJECT_NAME": "PLEIADES NEO 4", "OBJECT_ID": "2021-073E", "EPOCH": "2025-12-06T14:48:09.315936", "MEAN_MOTION": 14.81672576, "ECCENTRICITY": 0.00012979, "INCLINATION": 97.8949, "RA_OF_ASC_NODE": 53.1411, "ARG_OF_PERICENTER": 97.0251, "MEAN_ANOMALY": 263.1109, "EPHEMERIS_TYPE": 0, "CLASSIFICATION_TYPE": "U", "NORAD_CAT_ID": 49070, "ELEMENT_SET_NO": 999, "REV_AT_EPOCH": 23285, "BSTAR": -1.1095872e-05, "MEAN_MOTION_DOT": -1.39e-06, "MEAN_MOTION_DDOT": 0}, "tle": {"line1": "1 49070U 21073E   25340.61677449 -.00000139  00000+0 -11096-4 0  9996", "line2": "2 49070  97.8949  53.1411 0001297  97.0251 263.1109 14.81672576232855"}}, "geometry": {"type": "Point", "coordinates": [-132.13467314993798, -34.70678861224017]}}, {"type": "Feature", "properties": {"norad_id": 49260, "name": "LANDSAT 9", "group": "resource", "lat": 30.163341495322353, "lon": 44.242638538905204, "alt_km": 700.5651643495057, "timestamp": "2025-12-06T20:37:55.716949+00:00", "meta": {"OBJECT_NAME": "LANDSAT 9", "OBJECT_ID": "2021-088A", "EPOCH": "2025-12-06T15:32:54.264192", "MEAN_MOTION": 14.57120995, "ECCENTRICITY": 0.00010945, "INCLINATION": 98.2101, "RA_OF_ASC_NODE": 48.847, "ARG_OF_PERICENTER": 93.836, "MEAN_ANOMALY": 266.2963, "EPHEMERIS_TYPE": 0, "CLASSIFICATION_TYPE": "U", "NORAD_CAT_ID": 49260, "ELEMENT_SET_NO": 999, "REV_AT_EPOCH": 22296, "BSTAR": 0.00021199334, "MEAN_MOTION_DOT": 9.1e-06, "MEAN_MOTION_DDOT": 0}, "tle": {"line1": "1 49260U 21088A   25340.64785028  .00000910  00000+0  21199-3 0  9998", "line2": "2 49260  98.2101  48.8470 0001094  93.8360 266.2963 14.57120995222966"}}, "geometry": {"type": "Point", "coordinates": [44.242638538905204, 30.163341495322353]}}]}